{
  "norad_id": 66005,
  "name": "STARLINK-34849",
  "history": [
    {
      "epoch": "2026-05-04T14:20:40.912800Z",
      "apogee_km": 475.9754853511877,
      "perigee_km": 474.46089385428604,
      "latitude_deg": -1.1796539291442983e-05,
      "longitude_deg": 126.69188065866109,
      "height_km": 476.15759693625296,
      "semi_major_axis_km": 6853.355189602737,
      "eccentricity": 0.0001105,
      "inclination_deg": 53.1585,
      "raan_deg": 204.3471,
      "arg_perigee_deg": 93.1237,
      "mean_anomaly_deg": 266.989,
      "mean_motion_rev_day": 15.30198955
    },
    {
      "epoch": "2026-05-05T13:51:28.681920Z",
      "apogee_km": 476.11570888716324,
      "perigee_km": 474.33246433242766,
      "latitude_deg": -2.9647615321132303e-05,
      "longitude_deg": 128.47337004035208,
      "height_km": 475.7960347012515,
      "semi_major_axis_km": 6853.361086609795,
      "eccentricity": 0.0001301,
      "inclination_deg": 53.1579,
      "raan_deg": 199.7933,
      "arg_perigee_deg": 68.5545,
      "mean_anomaly_deg": 291.5594,
      "mean_motion_rev_day": 15.3019698
    },
    {
      "epoch": "2026-05-06T13:22:17.056704Z",
      "apogee_km": 475.9654797909134,
      "perigee_km": 474.4961177348596,
      "latitude_deg": -4.883844245843049e-05,
      "longitude_deg": 130.25712782364957,
      "height_km": 475.9708153031865,
      "semi_major_axis_km": 6853.367798762886,
      "eccentricity": 0.0001072,
      "inclination_deg": 53.1573,
      "raan_deg": 195.2443,
      "arg_perigee_deg": 77.5747,
      "mean_anomaly_deg": 282.5373,
      "mean_motion_rev_day": 15.30194732
    },
    {
      "epoch": "2026-05-07T20:43:20.784000Z",
      "apogee_km": 475.907033937925,
      "perigee_km": 474.52813899512876,
      "latitude_deg": 5.72271580915706e-06,
      "longitude_deg": 12.636592132483576,
      "height_km": 475.9360682840056,
      "semi_major_axis_km": 6853.354586466527,
      "eccentricity": 0.0001006,
      "inclination_deg": 53.1569,
      "raan_deg": 189.1768,
      "arg_perigee_deg": 74.8947,
      "mean_anomaly_deg": 285.2165,
      "mean_motion_rev_day": 15.30199157
    },
    {
      "epoch": "2026-05-08T10:49:49.219104Z",
      "apogee_km": 475.9289493345741,
      "perigee_km": 474.4280732376019,
      "latitude_deg": -2.0037729643346005e-05,
      "longitude_deg": 157.70850078449814,
      "height_km": 475.9870978327642,
      "semi_major_axis_km": 6853.315511286088,
      "eccentricity": 0.0001095,
      "inclination_deg": 53.1572,
      "raan_deg": 186.4466,
      "arg_perigee_deg": 83.1546,
      "mean_anomaly_deg": 276.9579,
      "mean_motion_rev_day": 15.30212244
    },
    {
      "epoch": "2026-05-09T10:20:37.296672Z",
      "apogee_km": 475.9105588432467,
      "perigee_km": 474.54673907910365,
      "latitude_deg": -2.416400446326962e-05,
      "longitude_deg": 159.49061294287517,
      "height_km": 476.02158518741487,
      "semi_major_axis_km": 6853.365648961175,
      "eccentricity": 9.95e-05,
      "inclination_deg": 53.1565,
      "raan_deg": 181.8947,
      "arg_perigee_deg": 81.1293,
      "mean_anomaly_deg": 278.982,
      "mean_motion_rev_day": 15.30195452
    },
    {
      "epoch": "2026-05-10T09:51:25.554816Z",
      "apogee_km": 475.9739982473566,
      "perigee_km": 474.459407079069,
      "latitude_deg": -4.006186478909988e-05,
      "longitude_deg": 161.27216273026843,
      "height_km": 475.9883220948355,
      "semi_major_axis_km": 6853.353702663213,
      "eccentricity": 0.0001105,
      "inclination_deg": 53.1572,
      "raan_deg": 177.343,
      "arg_perigee_deg": 80.3912,
      "mean_anomaly_deg": 279.7213,
      "mean_motion_rev_day": 15.30199453
    },
    {
      "epoch": "2026-05-11T09:22:13.376640Z",
      "apogee_km": 475.95134454206436,
      "perigee_km": 474.48308193542016,
      "latitude_deg": 5.6881078905822665e-05,
      "longitude_deg": 163.05632046758188,
      "height_km": 475.9060608719514,
      "semi_major_axis_km": 6853.354213238742,
      "eccentricity": 0.00010712,
      "inclination_deg": 53.158,
      "raan_deg": 172.792,
      "arg_perigee_deg": 73.4322,
      "mean_anomaly_deg": 286.6797,
      "mean_motion_rev_day": 15.30199282
    },
    {
      "epoch": "2026-05-12T19:51:23.641344Z",
      "apogee_km": 475.9848354134765,
      "perigee_km": 474.4263853038801,
      "latitude_deg": -1.3004195132097844e-05,
      "longitude_deg": -2.325598126497612,
      "height_km": 476.01698318610715,
      "semi_major_axis_km": 6853.342610358678,
      "eccentricity": 0.0001137,
      "inclination_deg": 53.1586,
      "raan_deg": 166.1192,
      "arg_perigee_deg": 83.6083,
      "mean_anomaly_deg": 276.5047,
      "mean_motion_rev_day": 15.30203168
    },
    {
      "epoch": "2026-05-13T11:31:55.688160Z",
      "apogee_km": 476.0195857543249,
      "perigee_km": 474.41178921384017,
      "latitude_deg": 6.132910652495227e-07,
      "longitude_deg": 118.86431129822654,
      "height_km": 476.01074327854855,
      "semi_major_axis_km": 6853.352687484082,
      "eccentricity": 0.0001173,
      "inclination_deg": 53.1595,
      "raan_deg": 163.0864,
      "arg_perigee_deg": 82.6306,
      "mean_anomaly_deg": 277.4828,
      "mean_motion_rev_day": 15.30199793
    }
  ]
}